TITAN 4B R/B            
1 26474U 00047B   25303.31471502  .00006592  00000+0  42311-3 0  9995
2 26474  67.9909  46.7703 0043402 194.5098 165.4809 15.08294700373249
ENVISAT                 
1 27386U 02009A   25303.32042630  .00000212  00000+0  82588-4 0  9999
2 27386  98.3524 255.1782 0001348  85.1620  40.6636 14.38974642240422
IDEFIX & ARIANE 42P R/B 
1 27422U 02021B   25303.29977751  .00000446  00000+0  18632-3 0  9998
2 27422  98.5716 238.5705 0011101 206.9493 153.1115 14.30901889225371
AQUA                    
1 27424U 02022A   25303.29935427  .00001590  00000+0  32936-3 0  9999
2 27424  98.3969 263.4928 0001351  51.2641  56.1316 14.61650239249686
CZ-4B R/B               
1 27432U 02024C   25303.14339737  .00000060  00000+0  54088-4 0  9990
2 27432  98.9067 352.0528 0050704  34.7541  24.7419 14.14514477210787
MIDORI II (ADEOS-II)    
1 27597U 02056A   25303.30936496  .00000438  00000+0  19039-3 0  9995
2 27597  98.7561 256.0546 0001849  52.5101 307.6248 14.29160069191674
H-2A R/B                
1 27601U 02056E   25303.19034373  .00000413  00000+0  15973-3 0  9997
2 27601  98.2995 263.6975 0069992 189.5362 181.2411 14.33629436195416
CZ-4B R/B               
1 28059U 03049C   25303.19886399  .00000652  00000+0  16171-3 0  9997
2 28059  98.6757 288.1251 0047086 270.0740  89.5060 14.54846760167625
CZ-2C R/B               
1 28222U 04012C   25303.13344359  .00041217  00000+0  68583-3 0  9995
2 28222  97.7501 352.2702 0020787  71.9544 288.3970 15.51687991183957
SL-16 R/B               
1 28353U 04021B   25303.27407481 -.00000243  00000+0 -10160-3 0  9995
2 28353  70.9981 146.1788 0007195 247.7081 112.3279 14.14570768104398
CZ-4B R/B               
1 28415U 04035C   25303.04570659  .00010896  00000+0  41405-3 0  9991
2 28415  97.3677 333.9903 0035860  72.6058 287.9097 15.26361256159960
CZ-2C R/B               
1 28480U 04046B   25303.27328995  .00000223  00000+0  97858-4 0  9991
2 28480  98.1945 221.3625 0139463 180.0427 180.0767 14.26911989 89904
