CCSDS_OMM_VERS = 2.0
CREATION_DATE  = 
ORIGINATOR     = 

OBJECT_NAME    = TITAN 4B R/B
OBJECT_ID      = 2000-047B
CENTER_NAME    = EARTH
REF_FRAME      = TEME
TIME_SYSTEM    = UTC
MEAN_ELEMENT_THEORY = SGP/SGP4

EPOCH          = 2025-10-30T07:33:11.377728
MEAN_MOTION    = 15.08294700
ECCENTRICITY   = .00434025
INCLINATION    = 67.9909
RA_OF_ASC_NODE = 46.7703
ARG_OF_PERICENTER = 194.5098
MEAN_ANOMALY   = 165.4809

EPHEMERIS_TYPE = 0
CLASSIFICATION_TYPE = U
NORAD_CAT_ID   = 26474
ELEMENT_SET_NO = 999
REV_AT_EPOCH   = 37324
BSTAR          = .42311343E-3
MEAN_MOTION_DOT = .6592E-4
MEAN_MOTION_DDOT = 0

CCSDS_OMM_VERS = 2.0
CREATION_DATE  = 
ORIGINATOR     = 

OBJECT_NAME    = ENVISAT
OBJECT_ID      = 2002-009A
CENTER_NAME    = EARTH
REF_FRAME      = TEME
TIME_SYSTEM    = UTC
MEAN_ELEMENT_THEORY = SGP/SGP4

EPOCH          = 2025-10-30T07:41:24.832320
MEAN_MOTION    = 14.38974642
ECCENTRICITY   = .0001348
INCLINATION    = 98.3524
RA_OF_ASC_NODE = 255.1782
ARG_OF_PERICENTER = 85.1620
MEAN_ANOMALY   = 40.6636

EPHEMERIS_TYPE = 0
CLASSIFICATION_TYPE = U
NORAD_CAT_ID   = 27386
ELEMENT_SET_NO = 999
REV_AT_EPOCH   = 24042
BSTAR          = .82588187E-4
MEAN_MOTION_DOT = .212E-5
MEAN_MOTION_DDOT = 0

CCSDS_OMM_VERS = 2.0
CREATION_DATE  = 
ORIGINATOR     = 

OBJECT_NAME    = IDEFIX & ARIANE 42P R/B
OBJECT_ID      = 2002-021B
CENTER_NAME    = EARTH
REF_FRAME      = TEME
TIME_SYSTEM    = UTC
MEAN_ELEMENT_THEORY = SGP/SGP4

EPOCH          = 2025-10-30T07:11:40.776864
MEAN_MOTION    = 14.30901889
ECCENTRICITY   = .00111012
INCLINATION    = 98.5716
RA_OF_ASC_NODE = 238.5705
ARG_OF_PERICENTER = 206.9493
MEAN_ANOMALY   = 153.1115

EPHEMERIS_TYPE = 0
CLASSIFICATION_TYPE = U
NORAD_CAT_ID   = 27422
ELEMENT_SET_NO = 999
REV_AT_EPOCH   = 22537
BSTAR          = .18632379E-3
MEAN_MOTION_DOT = .446E-5
MEAN_MOTION_DDOT = 0

CCSDS_OMM_VERS = 2.0
CREATION_DATE  = 
ORIGINATOR     = 

OBJECT_NAME    = AQUA
OBJECT_ID      = 2002-022A
CENTER_NAME    = EARTH
REF_FRAME      = TEME
TIME_SYSTEM    = UTC
MEAN_ELEMENT_THEORY = SGP/SGP4

EPOCH          = 2025-10-30T07:11:04.208928
MEAN_MOTION    = 14.61650239
ECCENTRICITY   = .0001351
INCLINATION    = 98.3969
RA_OF_ASC_NODE = 263.4928
ARG_OF_PERICENTER = 51.2641
MEAN_ANOMALY   = 56.1316

EPHEMERIS_TYPE = 0
CLASSIFICATION_TYPE = U
NORAD_CAT_ID   = 27424
ELEMENT_SET_NO = 999
REV_AT_EPOCH   = 24968
BSTAR          = .32935604E-3
MEAN_MOTION_DOT = .159E-4
MEAN_MOTION_DDOT = 0

CCSDS_OMM_VERS = 2.0
CREATION_DATE  = 
ORIGINATOR     = 

OBJECT_NAME    = CZ-4B R/B
OBJECT_ID      = 2002-024C
CENTER_NAME    = EARTH
REF_FRAME      = TEME
TIME_SYSTEM    = UTC
MEAN_ELEMENT_THEORY = SGP/SGP4

EPOCH          = 2025-10-30T03:26:29.532768
MEAN_MOTION    = 14.14514477
ECCENTRICITY   = .00507046
INCLINATION    = 98.9067
RA_OF_ASC_NODE = 352.0528
ARG_OF_PERICENTER = 34.7541
MEAN_ANOMALY   = 24.7419

EPHEMERIS_TYPE = 0
CLASSIFICATION_TYPE = U
NORAD_CAT_ID   = 27432
ELEMENT_SET_NO = 999
REV_AT_EPOCH   = 21078
BSTAR          = .54088193E-4
MEAN_MOTION_DOT = .6E-6
MEAN_MOTION_DDOT = 0

CCSDS_OMM_VERS = 2.0
CREATION_DATE  = 
ORIGINATOR     = 

OBJECT_NAME    = MIDORI II (ADEOS-II)
OBJECT_ID      = 2002-056A
CENTER_NAME    = EARTH
REF_FRAME      = TEME
TIME_SYSTEM    = UTC
MEAN_ELEMENT_THEORY = SGP/SGP4

EPOCH          = 2025-10-30T07:25:29.132544
MEAN_MOTION    = 14.29160069
ECCENTRICITY   = .00018496
INCLINATION    = 98.7561
RA_OF_ASC_NODE = 256.0546
ARG_OF_PERICENTER = 52.5101
MEAN_ANOMALY   = 307.6248

EPHEMERIS_TYPE = 0
CLASSIFICATION_TYPE = U
NORAD_CAT_ID   = 27597
ELEMENT_SET_NO = 999
REV_AT_EPOCH   = 19167
BSTAR          = .19038595E-3
MEAN_MOTION_DOT = .438E-5
MEAN_MOTION_DDOT = 0

CCSDS_OMM_VERS = 2.0
CREATION_DATE  = 
ORIGINATOR     = 

OBJECT_NAME    = H-2A R/B
OBJECT_ID      = 2002-056E
CENTER_NAME    = EARTH
REF_FRAME      = TEME
TIME_SYSTEM    = UTC
MEAN_ELEMENT_THEORY = SGP/SGP4

EPOCH          = 2025-10-30T04:34:05.698272
MEAN_MOTION    = 14.33629436
ECCENTRICITY   = .00699924
INCLINATION    = 98.2995
RA_OF_ASC_NODE = 263.6975
ARG_OF_PERICENTER = 189.5362
MEAN_ANOMALY   = 181.2411

EPHEMERIS_TYPE = 0
CLASSIFICATION_TYPE = U
NORAD_CAT_ID   = 27601
ELEMENT_SET_NO = 999
REV_AT_EPOCH   = 19541
BSTAR          = .15973263E-3
MEAN_MOTION_DOT = .413E-5
MEAN_MOTION_DDOT = 0

CCSDS_OMM_VERS = 2.0
CREATION_DATE  = 
ORIGINATOR     = 

OBJECT_NAME    = CZ-4B R/B
OBJECT_ID      = 2003-049C
CENTER_NAME    = EARTH
REF_FRAME      = TEME
TIME_SYSTEM    = UTC
MEAN_ELEMENT_THEORY = SGP/SGP4

EPOCH          = 2025-10-30T04:46:21.848736
MEAN_MOTION    = 14.54846760
ECCENTRICITY   = .00470864
INCLINATION    = 98.6757
RA_OF_ASC_NODE = 288.1251
ARG_OF_PERICENTER = 270.0740
MEAN_ANOMALY   = 89.5060

EPHEMERIS_TYPE = 0
CLASSIFICATION_TYPE = U
NORAD_CAT_ID   = 28059
ELEMENT_SET_NO = 999
REV_AT_EPOCH   = 16762
BSTAR          = .16170586E-3
MEAN_MOTION_DOT = .652E-5
MEAN_MOTION_DDOT = 0

CCSDS_OMM_VERS = 2.0
CREATION_DATE  = 
ORIGINATOR     = 

OBJECT_NAME    = CZ-2C R/B
OBJECT_ID      = 2004-012C
CENTER_NAME    = EARTH
REF_FRAME      = TEME
TIME_SYSTEM    = UTC
MEAN_ELEMENT_THEORY = SGP/SGP4

EPOCH          = 2025-10-30T03:12:09.526176
MEAN_MOTION    = 15.51687991
ECCENTRICITY   = .00207876
INCLINATION    = 97.7501
RA_OF_ASC_NODE = 352.2702
ARG_OF_PERICENTER = 71.9544
MEAN_ANOMALY   = 288.3970

EPHEMERIS_TYPE = 0
CLASSIFICATION_TYPE = U
NORAD_CAT_ID   = 28222
ELEMENT_SET_NO = 999
REV_AT_EPOCH   = 18395
BSTAR          = .68583409E-3
MEAN_MOTION_DOT = .41217E-3
MEAN_MOTION_DDOT = 0

CCSDS_OMM_VERS = 2.0
CREATION_DATE  = 
ORIGINATOR     = 

OBJECT_NAME    = SL-16 R/B
OBJECT_ID      = 2004-021B
CENTER_NAME    = EARTH
REF_FRAME      = TEME
TIME_SYSTEM    = UTC
MEAN_ELEMENT_THEORY = SGP/SGP4

EPOCH          = 2025-10-30T06:34:40.063584
MEAN_MOTION    = 14.14570768
ECCENTRICITY   = .00071954
INCLINATION    = 70.9981
RA_OF_ASC_NODE = 146.1788
ARG_OF_PERICENTER = 247.7081
MEAN_ANOMALY   = 112.3279

EPHEMERIS_TYPE = 0
CLASSIFICATION_TYPE = U
NORAD_CAT_ID   = 28353
ELEMENT_SET_NO = 999
REV_AT_EPOCH   = 10439
BSTAR          = -.1016029E-3
MEAN_MOTION_DOT = -.243E-5
MEAN_MOTION_DDOT = 0

CCSDS_OMM_VERS = 2.0
CREATION_DATE  = 
ORIGINATOR     = 

OBJECT_NAME    = CZ-4B R/B
OBJECT_ID      = 2004-035C
CENTER_NAME    = EARTH
REF_FRAME      = TEME
TIME_SYSTEM    = UTC
MEAN_ELEMENT_THEORY = SGP/SGP4

EPOCH          = 2025-10-30T01:05:49.049376
MEAN_MOTION    = 15.26361256
ECCENTRICITY   = .00358609
INCLINATION    = 97.3677
RA_OF_ASC_NODE = 333.9903
ARG_OF_PERICENTER = 72.6058
MEAN_ANOMALY   = 287.9097

EPHEMERIS_TYPE = 0
CLASSIFICATION_TYPE = U
NORAD_CAT_ID   = 28415
ELEMENT_SET_NO = 999
REV_AT_EPOCH   = 15996
BSTAR          = .41404645E-3
MEAN_MOTION_DOT = .10896E-3
MEAN_MOTION_DDOT = 0

CCSDS_OMM_VERS = 2.0
CREATION_DATE  = 
ORIGINATOR     = 

OBJECT_NAME    = CZ-2C R/B
OBJECT_ID      = 2004-046B
CENTER_NAME    = EARTH
REF_FRAME      = TEME
TIME_SYSTEM    = UTC
MEAN_ELEMENT_THEORY = SGP/SGP4

EPOCH          = 2025-10-30T06:33:32.251680
MEAN_MOTION    = 14.26911989
ECCENTRICITY   = .01394638
INCLINATION    = 98.1945
RA_OF_ASC_NODE = 221.3625
ARG_OF_PERICENTER = 180.0427
MEAN_ANOMALY   = 180.0767

EPHEMERIS_TYPE = 0
CLASSIFICATION_TYPE = U
NORAD_CAT_ID   = 28480
ELEMENT_SET_NO = 999
REV_AT_EPOCH   = 8990
BSTAR          = .97857886E-4
MEAN_MOTION_DOT = .223E-5
MEAN_MOTION_DDOT = 0

